[{"OBJECT_NAME":"STARLINK-35218","OBJECT_ID":"2025-253X","EPOCH":"2026-03-09T10:40:20.344224","MEAN_MOTION":15.27591897,"ECCENTRICITY":0.00012834,"INCLINATION":43.0018,"RA_OF_ASC_NODE":214.1773,"ARG_OF_PERICENTER":267.9968,"MEAN_ANOMALY":92.0736,"EPHEMERIS_TYPE":0,"CLASSIFICATION_TYPE":"U","NORAD_CAT_ID":66340,"ELEMENT_SET_NO":999,"REV_AT_EPOCH":2020,"BSTAR":0.0009354775,"MEAN_MOTION_DOT":0.00025579,"MEAN_MOTION_DDOT":0},{"OBJECT_NAME":"CZ-4B DEB","OBJECT_ID":"2008-053J","EPOCH":"2026-03-09T11:59:22.469568","MEAN_MOTION":15.1637526,"ECCENTRICITY":0.00601661,"INCLINATION":97.7872,"RA_OF_ASC_NODE":170.5072,"ARG_OF_PERICENTER":304.792,"MEAN_ANOMALY":54.7659,"EPHEMERIS_TYPE":0,"CLASSIFICATION_TYPE":"U","NORAD_CAT_ID":35573,"ELEMENT_SET_NO":999,"REV_AT_EPOCH":91868,"BSTAR":0.0017688276,"MEAN_MOTION_DOT":0.00036031,"MEAN_MOTION_DDOT":0}]
